HAWK-11A                
1 62382U 24247F   26068.51231358  .00009457  00000+0  34106-3 0  9991
2 62382  44.9941 114.3328 0005466 327.3713  32.6832 15.28849427 67741
STARLINK-32938          
1 63201U 25048U   26068.11306654  .00027488  00000+0  10035-2 0  9998
2 63201  42.9993  88.5968 0001638 281.6185  78.4483 15.27619256 57003
